#dP2019 10 21  0  0  0.00000000      96 __u+U ITR00 FIT  IAC
## 2076  86400.00000000   900.00000000 58777 0.0000000000000
+  115   C01C02C03C04C05C06C07C08C09C10C11C12C13C14C16C19C20
+        C21C22C23C24C25C26C27C28C29C30C32C33C34C35C36C37E01
+        E02E03E04E05E07E08E09E11E12E13E14E15E18E19E21E24E25
+        E26E27E30E31E33E36G01G02G03G05G06G07G08G09G10G11G12
+        G13G14G15G16G17G18G19G20G21G22G23G24G25G26G27G28G29
+        G30G31G32J01J02J03J07R01R02R03R05R06R07R08R09R11R12
+        R13R14R15R16R17R18R19R20R21R22R23R24R26  0  0  0  0
++        13 13 13 13 13  8  8  8  8  8  8  8  8  8  8  8  7
++         8  8  8  8  8  8  7  7  7  7  8  8  8  8  8  8  5
++         5  5  5  5  5  5  5  5  5  5  5  5  5  5  5  5  5
++         5  4  4  5  5  5  3  3  3  3  3  3  3  3  4  4  3
++         4  3  3  3  3  4  3  3  3  3  3  3  3  3  3  3  3
++         3  3  3  8  8  8 13  6  5  5  5 10  5  5  5  6  5
++         6  5  5  6  5  5  6  6  5  5  5  6  8  0  0  0  0
%c M  cc GPS ccc cccc cccc cccc cccc ccccc ccccc ccccc ccccc
%c cc cc ccc ccc cccc cccc cccc cccc ccccc ccccc ccccc ccccc
%f  0.0000000  0.000000000  0.00000000000  0.000000000000000
%f  0.0000000  0.000000000  0.00000000000  0.000000000000000
%i    0    0    0    0      0      0      0      0         0
%i    0    0    0    0      0      0      0      0         0
/* INFORMATION & ANALYSIS CENTER (IAC)            RAPID DATA
/* S/V CLOCKS ARE ALIGNED TO GNSS TIME                      
/* G:C1WC2W R:C1PC2P E:C1XC5X C:C2IC6I J:C1CC2S             
/* PCV:IGS14_2070 OL/AL:FES2004  NONE     YN ORB:CoN CLK:CoN
*  2019 10 21 23 30  0.00000000
PC01 -32307.986930  27062.663225    408.149092     42.549658
PC02   4437.407965  41950.866263    390.853004    243.309278
PC03 -14745.824873  39494.001306    759.329348    358.730494
PC04 -39576.275113  14475.253440    348.128823   -401.563480
PC05  21839.510425  36075.432476    289.091768     29.429371
PC06 -24260.576784  25250.857865 -23412.697552    351.447949
PC07 -14792.995446  37443.263963 -11464.523305   -210.416517
PC08  -7664.764733  21711.015498  35442.435175    -19.687831
PC09  -7374.473633  25858.246876 -32337.827629     57.766247
PC10  -4444.490334  41664.451792   1970.223295   -291.550154
PC11  25725.620596   6945.186789   8465.698125     43.267748
PC12   -263.157055  15387.529300  23347.188823    304.900224
PC13   6294.700117  30288.362283  28837.794315   -830.268823
PC14  15555.826311   4987.441562 -22608.299228     94.787262
PC16 -20140.465811  26003.805408 -26438.360552   -897.094842
PC19 -19148.993307   4845.009710  19722.912972    224.596916
PC20  -9736.730430 -13747.262810  22260.400495   -198.662076
PC21  -5771.074001  24681.138148 -11642.726207    239.443382
PC22 -17599.993109  20892.125243   5621.407641   -255.307417
PC23  10391.439535 -13777.393763  21943.705529   -898.964579
PC24  16037.420171  22079.613465   5890.965607   -880.441110
PC25  18857.667088   5131.207574  19927.542209   -387.865699
PC26   5059.315585  25224.669977 -10845.702181    431.699821
PC27    626.947342 -15875.877127 -22953.630141    211.109889
PC28  20201.085951 -10187.318161 -16342.433542    202.355940
PC29 -27900.356078   -344.869506    252.220856    135.321391
PC30 -19509.185480 -11624.404847 -16224.594729    211.730556
PC32   5587.172026 -24742.616513  11648.083110   -890.249376
PC33  19139.709556  -4886.448796 -19720.276383   -491.053293
PC34  19711.583913  11585.247904  15987.148767   -172.328165
PC35 -19929.894405  10860.957686  16255.298775   -469.389038
PC36 -18745.233106  -5761.525508 -19824.453171   -939.593711
PC37  -4018.622643 -25181.895322  11350.778706   -640.581002
PE01  14110.596323 -12901.019283  22606.811193   -715.485133
PE02 -14076.034659  12985.318063 -22564.638021     86.702768
PE03 -25377.926397  15013.544335   2486.760591   -224.412888
PE04  13153.451451 -21810.317118  15084.657509   -390.077236
PE05 -22860.592629   -654.371002  18786.152206   -438.035318
PE07   7000.464086  15839.400159 -24004.000206   -287.164601
PE08 -12879.955173  21831.674296 -15276.340205   6274.355396
PE09  -7064.551967 -15653.345853  24109.832844   6277.778368
PE11 -17272.543297 -18986.225247 -14753.173317   5543.150447
PE12   3544.915417 -16260.080655 -24476.971196   6138.384949
PE13  17242.581659  18889.541996  14911.124149    394.450810
PE14 -18700.713714  12777.984867  10235.364828   -765.389004
PE15  -3090.981232  16341.595694  24492.656880    890.695022
PE18  12014.547144 -20384.054124 -21357.941368   -859.931813
PE19  25840.192240 -13720.126599  -4499.530549     -3.300813
PE21  15985.743003   9646.599619  22973.881788   -561.569826
PE24  -8404.140995 -26592.339752  -9899.812139   5807.858661
PE25 -15962.002062  -9759.540268 -22925.889396   1640.330036
PE26  27471.240590  10444.665990  -3588.427044   3967.134830
PE27   8479.333929  26608.288220   9823.044606    362.050359
PE30  -4148.575582  27885.344542  -9031.063335   4448.183171
PE31   3999.418424 -27896.061450   9081.183239   -469.854116
PE33  21663.210958  -4196.474428 -19726.576661   -471.337058
PE36 -27509.978193 -10360.081006   3445.710267    646.729752
PG01 -21618.500561 -13231.672830   8258.689314   -170.735094
PG02  11616.026759  20978.682864  12171.426211   -330.769211
PG03 -14484.986703  -4411.120251  21764.261638    -25.502258
PG05   5026.546761  22309.302187 -13481.027697     -2.574020
PG06  -1860.128202  17126.648316  20251.007088    -98.303076
PG07 -18304.904530    960.626674 -19105.017847   -132.103656
PG08 -17743.675005  -7661.399457 -18276.653587    -10.709503
PG09 -25522.712657   7328.451936    653.780240    -62.968285
PG10  11440.135504 -22290.602363  -8411.111922   -103.557996
PG11 -24936.473467  -8643.226595   -785.624318   -471.204611
PG12  11705.337908  10266.412445  21328.064252    191.633326
PG13   8437.448743  13539.871682 -21364.042816    -37.494526
PG14   6240.495854 -15963.631152  20569.646607    -54.849623
PG15  19314.582944   6413.536274 -17548.656983   -278.230091
PG16   -831.152218 -23325.504463 -12439.105324    -85.542753
PG17 -16347.986878  14388.244210  15564.905746    148.495072
PG18 -19864.449797 -17709.758886   -588.606043     94.722941
PG19 -10246.591647  14883.641696  19178.421634   -250.513233
PG20  14272.985390 -14841.761532 -16778.581003    527.263316
PG21  15176.483414  -5997.595837 -20130.698277    -98.600168
PG22 -12932.148665 -12527.045063  19772.511056   -765.836344
PG23 -24474.798153   -764.499501  11102.972411   -160.103363
PG24  22249.648684  13668.882158   5616.197384     -3.804541
PG25  15815.106989  -6090.498189  20169.768345    -15.901424
PG26   4007.453688 -26057.234849  -2207.562131     66.801193
PG27  -5413.608086 -13899.236475 -22097.243697    -95.076354
PG28 -12570.455102  22233.210152  -6883.370929    758.199449
PG29  26141.998625  -4161.152730   2311.547073     65.019608
PG30 -10265.499353  11862.419324 -21392.672550    -66.704737
PG31    691.873872 -18318.444387  19039.020304      2.079982
PG32  15579.677095 -15549.020361  14832.663929     99.293578
PJ01 -32685.308829  25991.475561  10786.041598   -337.327944
PJ02 -18437.806264  26061.962261 -23138.504794     -6.218787
PJ03 -30823.747787  25569.052623  18268.237125     -4.433271
PJ07 -25381.294978  33665.553958    -42.340846     -0.322022
PR01 -11042.964974  20260.657147 -10863.447904     51.520228
PR02   5282.258162  10145.223346 -22772.745094    393.989739
PR03  16701.723657  -5043.836591 -18554.577184      3.522155
PR05   9655.725556 -19576.974770  13182.253967     37.940119
PR06  -6424.777495  -9383.352819  22814.266822    164.246395
PR07 -16971.392246   5517.419684  18272.515020    -28.344289
PR08 -18453.099437  17186.750480   3932.425392     14.915564
PR09 -11747.437877 -19917.967204 -10827.557286     96.967826
PR11  -6859.228942  12397.415843 -21177.782667     22.560368
PR12   2601.068337  23494.630847  -9578.539631     72.310540
PR13  11087.339510  21376.543893   8395.540591    -29.951463
PR14  12670.888039   6842.447276  21069.058426     44.232801
PR15   7158.844233 -11544.203683  21617.955496    104.461844
PR16  -3046.514721 -23476.274108   9331.998766      1.990550
PR17  24976.255493   5137.754155  -1315.043196    270.160782
PR18  18837.648084  -3412.258696 -16817.672116     11.752179
PR19   3102.779863  -9948.733226 -23281.664757    -60.038501
PR20 -16662.048522 -11468.468841 -15556.166724   -394.000834
PR21 -24944.759854  -4792.456689   2121.568368    -80.239929
PR22 -16679.731806   4700.940874  18770.496606   -181.142500
PR23   3572.369693  11276.203134  22593.435484    261.765463
PR24  18481.778490  10778.121440  13861.602638   -185.959322
PR26 -13788.775449 -11573.659041 -18043.451596      2.419919
EOF
